[{"OBJECT_NAME":"STARLINK-33952","OBJECT_ID":"2025-102AA","EPOCH":"2026-03-09T13:16:46.572384","MEAN_MOTION":14.9834229,"ECCENTRICITY":0.0003793,"INCLINATION":70.0006,"RA_OF_ASC_NODE":114.7215,"ARG_OF_PERICENTER":269.3018,"MEAN_ANOMALY":90.7707,"EPHEMERIS_TYPE":0,"CLASSIFICATION_TYPE":"U","NORAD_CAT_ID":64046,"ELEMENT_SET_NO":999,"REV_AT_EPOCH":4593,"BSTAR":0.00039128,"MEAN_MOTION_DOT":4.58e-5,"MEAN_MOTION_DDOT":0},{"OBJECT_NAME":"SL-24 R\/B","OBJECT_ID":"2013-042B","EPOCH":"2026-03-09T12:40:44.242176","MEAN_MOTION":14.08721534,"ECCENTRICITY":0.04493882,"INCLINATION":97.5179,"RA_OF_ASC_NODE":292.5098,"ARG_OF_PERICENTER":125.3337,"MEAN_ANOMALY":239.0716,"EPHEMERIS_TYPE":0,"CLASSIFICATION_TYPE":"U","NORAD_CAT_ID":39228,"ELEMENT_SET_NO":999,"REV_AT_EPOCH":64027,"BSTAR":0.00010261222,"MEAN_MOTION_DOT":4.15e-6,"MEAN_MOTION_DDOT":0}]
